start=new Date('2021-11-02T00:00:00.000Z').valueOf();
sats=[{"TLE_LINE2":"2 48024  53.0420 178.1642 0008182 290.7576 328.4371 15.73218547  3686","REV_AT_EPOCH":"368","PERIOD":"91.532","EPOCH":"2021-11-01T22:00:00.999936","LAUNCH_DATE":"2021-03-24","TLE_LINE1":"1 48024U 21024AZ  21305.91667824 -.00032420  00000-0 -22666-3 0  9999","TIME_SYSTEM":"UTC","SEMIMAJOR_AXIS":"6727.842","CENTER_NAME":"EARTH","REF_FRAME":"TEME","PERIAPSIS":"344.203","OBJECT_ID":"2021-024AZ","MEAN_ANOMALY":"328.4371","INCLINATION":"53.0420","CLASSIFICATION_TYPE":"U","SITE":"AFETR","MEAN_MOTION":"15.73218547","NORAD_CAT_ID":"48024","FILE":"3196819","OBJECT_TYPE":"PAYLOAD","OBJECT_NAME":"STARLINK-2302","RA_OF_ASC_NODE":"178.1642","MEAN_MOTION_DOT":"-0.00032420","ECCENTRICITY":"0.00081820","RCS_SIZE":"LARGE","BSTAR":"-0.00022666000000","MEAN_MOTION_DDOT":"0.0000000000000","ELEMENT_SET_NO":"999","ARG_OF_PERICENTER":"290.7576","DECAY_DATE":null,"MEAN_ELEMENT_THEORY":"SGP4","COUNTRY_CODE":"US","GP_ID":"188694128","APOAPSIS":"355.212","EPHEMERIS_TYPE":"0"},{"TLE_LINE2":"2 48025  53.0419 178.1572 0002570  15.2970 244.5179 15.73200689  3682","REV_AT_EPOCH":"368","PERIOD":"91.533","EPOCH":"2021-11-01T22:00:00.999936","LAUNCH_DATE":"2021-03-24","TIME_SYSTEM":"UTC","TLE_LINE1":"1 48025U 21024BA  21305.91667824 -.00006325  00000-0 -40645-4 0  9993","SEMIMAJOR_AXIS":"6727.893","CENTER_NAME":"EARTH","OBJECT_ID":"2021-024BA","MEAN_ANOMALY":"244.5179","REF_FRAME":"TEME","PERIAPSIS":"348.029","INCLINATION":"53.0419","SITE":"AFETR","CLASSIFICATION_TYPE":"U","MEAN_MOTION":"15.73200689","NORAD_CAT_ID":"48025","FILE":"3196819","OBJECT_NAME":"STARLINK-2318","OBJECT_TYPE":"PAYLOAD","RA_OF_ASC_NODE":"178.1572","MEAN_MOTION_DOT":"-0.00006325","ECCENTRICITY":"0.00025700","BSTAR":"-0.00004064500000","RCS_SIZE":"LARGE","MEAN_MOTION_DDOT":"0.0000000000000","ELEMENT_SET_NO":"999","DECAY_DATE":null,"MEAN_ELEMENT_THEORY":"SGP4","ARG_OF_PERICENTER":"15.2970","COUNTRY_CODE":"US","GP_ID":"188695380","APOAPSIS":"351.487","EPHEMERIS_TYPE":"0"},{"MEAN_MOTION_DDOT":"0.0000000000000","ELEMENT_SET_NO":"999","MEAN_MOTION_DOT":"0.00001071","ECCENTRICITY":"0.00015130","BSTAR":"0.00009076500000","RCS_SIZE":"LARGE","GP_ID":"188695130","APOAPSIS":"548.265","EPHEMERIS_TYPE":"0","DECAY_DATE":null,"MEAN_ELEMENT_THEORY":"SGP4","ARG_OF_PERICENTER":"78.4218","COUNTRY_CODE":"US","LAUNCH_DATE":"2021-03-24","CENTER_NAME":"EARTH","TLE_LINE1":"1 48026U 21024BB  21305.62739228  .00001071  00000-0  90765-4 0  9999","SEMIMAJOR_AXIS":"6925.352","TIME_SYSTEM":"UTC","MEAN_ANOMALY":"281.6941","OBJECT_ID":"2021-024BB","PERIAPSIS":"546.170","REF_FRAME":"TEME","TLE_LINE2":"2 48026  53.0280 270.3256 0001513  78.4218 281.6941 15.06398742 34996","REV_AT_EPOCH":"3499","PERIOD":"95.592","EPOCH":"2021-11-01T15:03:26.692992","FILE":"3196819","OBJECT_NAME":"STARLINK-2278","OBJECT_TYPE":"PAYLOAD","RA_OF_ASC_NODE":"270.3256","INCLINATION":"53.0280","SITE":"AFETR","CLASSIFICATION_TYPE":"U","MEAN_MOTION":"15.06398742","NORAD_CAT_ID":"48026"},{"GP_ID":"188694379","APOAPSIS":"548.307","EPHEMERIS_TYPE":"0","DECAY_DATE":null,"MEAN_ELEMENT_THEORY":"SGP4","ARG_OF_PERICENTER":"67.3586","COUNTRY_CODE":"US","MEAN_MOTION_DDOT":"0.0000000000000","ELEMENT_SET_NO":"999","MEAN_MOTION_DOT":"0.00000657","ECCENTRICITY":"0.00015450","BSTAR":"0.00006301400000","RCS_SIZE":"LARGE","FILE":"3196819","OBJECT_NAME":"STARLINK-2300","OBJECT_TYPE":"PAYLOAD","RA_OF_ASC_NODE":"244.1809","INCLINATION":"53.0555","SITE":"AFETR","CLASSIFICATION_TYPE":"U","MEAN_MOTION":"15.06392383","NORAD_CAT_ID":"48027","LAUNCH_DATE":"2021-03-24","TLE_LINE1":"1 48027U 21024BC  21305.85269808  .00000657  00000-0  63014-4 0  9993","SEMIMAJOR_AXIS":"6925.372","TIME_SYSTEM":"UTC","CENTER_NAME":"EARTH","OBJECT_ID":"2021-024BC","MEAN_ANOMALY":"292.7566","PERIAPSIS":"546.167","REF_FRAME":"TEME","TLE_LINE2":"2 48027  53.0555 244.1809 0001545  67.3586 292.7566 15.06392383 35379","PERIOD":"95.593","REV_AT_EPOCH":"3537","EPOCH":"2021-11-01T20:27:53.114112"},{"RA_OF_ASC_NODE":"198.8842","OBJECT_NAME":"STARLINK-2264","OBJECT_TYPE":"PAYLOAD","FILE":"3196819","NORAD_CAT_ID":"48028","MEAN_MOTION":"15.06410122","SITE":"AFETR","CLASSIFICATION_TYPE":"U","INCLINATION":"53.0558","MEAN_ANOMALY":"215.0481","OBJECT_ID":"2021-024BD","PERIAPSIS":"545.354","REF_FRAME":"TEME","TLE_LINE1":"1 48028U 21024BD  21305.91667824 -.00057602  00000-0 -38782-2 0  9997","CENTER_NAME":"EARTH","SEMIMAJOR_AXIS":"6925.318","TIME_SYSTEM":"UTC","LAUNCH_DATE":"2021-03-24","EPOCH":"2021-11-01T22:00:00.999936","PERIOD":"95.591","REV_AT_EPOCH":"358","TLE_LINE2":"2 48028  53.0558 198.8842 0002640  64.8569 215.0481 15.06410122  3589","EPHEMERIS_TYPE":"0","APOAPSIS":"549.011","GP_ID":"188694629","COUNTRY_CODE":"US","MEAN_ELEMENT_THEORY":"SGP4","DECAY_DATE":null,"ARG_OF_PERICENTER":"64.8569","ELEMENT_SET_NO":"999","MEAN_MOTION_DDOT":"0.0000000000000","BSTAR":"-0.00387820000000","RCS_SIZE":"LARGE","ECCENTRICITY":"0.00026400","MEAN_MOTION_DOT":"-0.00057602"},{"TLE_LINE2":"2 48029  53.0555 264.0184 0001595  74.4569 285.6596 15.06408689 35161","REV_AT_EPOCH":"3516","PERIOD":"95.592","EPOCH":"2021-11-01T21:23:36.623040","LAUNCH_DATE":"2021-03-24","TLE_LINE1":"1 48029U 21024BE  21305.89139610  .00002096  00000-0  15954-3 0  9994","CENTER_NAME":"EARTH","SEMIMAJOR_AXIS":"6925.322","TIME_SYSTEM":"UTC","OBJECT_ID":"2021-024BE","MEAN_ANOMALY":"285.6596","PERIAPSIS":"546.082","REF_FRAME":"TEME","INCLINATION":"53.0555","SITE":"AFETR","CLASSIFICATION_TYPE":"U","MEAN_MOTION":"15.06408689","NORAD_CAT_ID":"48029","FILE":"3196819","OBJECT_NAME":"STARLINK-2299","OBJECT_TYPE":"PAYLOAD","RA_OF_ASC_NODE":"264.0184","MEAN_MOTION_DOT":"0.00002096","ECCENTRICITY":"0.00015950","BSTAR":"0.00015954000000","RCS_SIZE":"LARGE","MEAN_MOTION_DDOT":"0.0000000000000","ELEMENT_SET_NO":"999","MEAN_ELEMENT_THEORY":"SGP4","DECAY_DATE":null,"ARG_OF_PERICENTER":"74.4569","COUNTRY_CODE":"US","GP_ID":"188694880","APOAPSIS":"548.292","EPHEMERIS_TYPE":"0"},{"RA_OF_ASC_NODE":"272.1511","FILE":"3195259","OBJECT_TYPE":"PAYLOAD","OBJECT_NAME":"STARLINK-2268","MEAN_MOTION":"15.06408752","NORAD_CAT_ID":"48030","INCLINATION":"53.0552","CLASSIFICATION_TYPE":"U","SITE":"AFETR","TIME_SYSTEM":"UTC","TLE_LINE1":"1 48030U 21024BF  21305.18876318  .00001440  00000-0  11550-3 0  9991","SEMIMAJOR_AXIS":"6925.322","CENTER_NAME":"EARTH","PERIAPSIS":"546.060","REF_FRAME":"TEME","MEAN_ANOMALY":"286.3266","OBJECT_ID":"2021-024BF","LAUNCH_DATE":"2021-03-24","EPOCH":"2021-11-01T04:31:49.138752","TLE_LINE2":"2 48030  53.0552 272.1511 0001627  73.7902 286.3266 15.06408752 34457","REV_AT_EPOCH":"3445","PERIOD":"95.592","EPHEMERIS_TYPE":"0","GP_ID":"188615946","APOAPSIS":"548.313","COUNTRY_CODE":"US","ARG_OF_PERICENTER":"73.7902","DECAY_DATE":null,"MEAN_ELEMENT_THEORY":"SGP4","ELEMENT_SET_NO":"999","MEAN_MOTION_DDOT":"0.0000000000000","RCS_SIZE":"LARGE","BSTAR":"0.00011550000000","MEAN_MOTION_DOT":"0.00001440","ECCENTRICITY":"0.00016270"},{"BSTAR":"0.00007570000000","RCS_SIZE":"LARGE","ECCENTRICITY":"0.00068380","MEAN_MOTION_DOT":"0.00010016","ELEMENT_SET_NO":"999","MEAN_MOTION_DDOT":"0.0000000000000","COUNTRY_CODE":"US","DECAY_DATE":null,"MEAN_ELEMENT_THEORY":"SGP4","ARG_OF_PERICENTER":"294.6397","EPHEMERIS_TYPE":"0","APOAPSIS":"354.404","GP_ID":"188693879","EPOCH":"2021-11-01T22:00:00.999936","PERIOD":"91.534","REV_AT_EPOCH":"368","TLE_LINE2":"2 48031  53.0426 178.4459 0006838 294.6397 185.1537 15.73184816  3682","OBJECT_ID":"2021-024BG","MEAN_ANOMALY":"185.1537","REF_FRAME":"TEME","PERIAPSIS":"345.203","SEMIMAJOR_AXIS":"6727.938","TLE_LINE1":"1 48031U 21024BG  21305.91667824  .00010016  00000-0  75700-4 0  9990","TIME_SYSTEM":"UTC","CENTER_NAME":"EARTH","LAUNCH_DATE":"2021-03-24","NORAD_CAT_ID":"48031","MEAN_MOTION":"15.73184816","SITE":"AFETR","CLASSIFICATION_TYPE":"U","INCLINATION":"53.0426","RA_OF_ASC_NODE":"178.4459","OBJECT_NAME":"STARLINK-2267","OBJECT_TYPE":"PAYLOAD","FILE":"3196819"},{"RCS_SIZE":"LARGE","BSTAR":"-0.00062868000000","MEAN_MOTION_DOT":"-0.00088336","ECCENTRICITY":"0.00073370","ELEMENT_SET_NO":"999","MEAN_MOTION_DDOT":"0.0000000000000","COUNTRY_CODE":"US","ARG_OF_PERICENTER":"293.2382","MEAN_ELEMENT_THEORY":"SGP4","DECAY_DATE":null,"EPHEMERIS_TYPE":"0","GP_ID":"188694129","APOAPSIS":"354.531","EPOCH":"2021-11-01T22:00:00.999936","TLE_LINE2":"2 48032  53.0427 178.4419 0007337 293.2382 187.1706 15.73257891  3688","REV_AT_EPOCH":"368","PERIOD":"91.530","TLE_LINE1":"1 48032U 21024BH  21305.91667824 -.00088336  00000-0 -62868-3 0  9993","TIME_SYSTEM":"UTC","SEMIMAJOR_AXIS":"6727.730","CENTER_NAME":"EARTH","REF_FRAME":"TEME","PERIAPSIS":"344.659","OBJECT_ID":"2021-024BH","MEAN_ANOMALY":"187.1706","LAUNCH_DATE":"2021-03-24","MEAN_MOTION":"15.73257891","NORAD_CAT_ID":"48032","INCLINATION":"53.0427","CLASSIFICATION_TYPE":"U","SITE":"AFETR","RA_OF_ASC_NODE":"178.4419","FILE":"3196819","OBJECT_TYPE":"PAYLOAD","OBJECT_NAME":"STARLINK-2297"},{"MEAN_MOTION_DOT":"0.00000908","ECCENTRICITY":"0.00016460","RCS_SIZE":"LARGE","BSTAR":"0.00007983100000","MEAN_MOTION_DDOT":"0.0000000000000","ELEMENT_SET_NO":"999","ARG_OF_PERICENTER":"72.0816","MEAN_ELEMENT_THEORY":"SGP4","DECAY_DATE":null,"COUNTRY_CODE":"US","GP_ID":"188695381","APOAPSIS":"548.328","EPHEMERIS_TYPE":"0","TLE_LINE2":"2 48033  53.0537 264.0236 0001646  72.0816 288.0353 15.06408402 35161","PERIOD":"95.592","REV_AT_EPOCH":"3516","EPOCH":"2021-11-01T21:22:14.706336","LAUNCH_DATE":"2021-03-24","SEMIMAJOR_AXIS":"6925.323","TLE_LINE1":"1 48033U 21024BJ  21305.89044799  .00000908  00000-0  79831-4 0  9997","TIME_SYSTEM":"UTC","CENTER_NAME":"EARTH","PERIAPSIS":"546.048","REF_FRAME":"TEME","OBJECT_ID":"2021-024BJ","MEAN_ANOMALY":"288.0353","INCLINATION":"53.0537","CLASSIFICATION_TYPE":"U","SITE":"AFETR","MEAN_MOTION":"15.06408402","NORAD_CAT_ID":"48033","FILE":"3196819","OBJECT_TYPE":"PAYLOAD","OBJECT_NAME":"STARLINK-2286","RA_OF_ASC_NODE":"264.0236"}];
